TEVEL2-6                
1 63215U 25052F   26068.64958975  .00021046  00000+0  70909-3 0  9996
2 63215  97.4016 325.0381 0004769  95.6604 264.5181 15.30760889 54861
STARLINK-34300          
1 64218U 25117R   26068.19761232  .00037202  00000+0  12626-2 0  9992
2 64218  53.1610  41.6565 0001255  91.9459 268.1686 15.30181729 44457
